CCSDS_OMM_VERS = 2.0
CREATION_DATE  = 
ORIGINATOR     = 

OBJECT_NAME    = STARLINK-35945
OBJECT_ID      = 2025-286A
CENTER_NAME    = EARTH
REF_FRAME      = TEME
TIME_SYSTEM    = UTC
MEAN_ELEMENT_THEORY = SGP/SGP4

EPOCH          = 2026-01-01T23:03:16.036128
MEAN_MOTION    = 15.49379260
ECCENTRICITY   = .0000885
INCLINATION    = 53.1603
RA_OF_ASC_NODE = 310.9972
ARG_OF_PERICENTER = 97.8828
MEAN_ANOMALY   = 262.2281

EPHEMERIS_TYPE = 0
CLASSIFICATION_TYPE = U
NORAD_CAT_ID   = 66925
ELEMENT_SET_NO = 999
REV_AT_EPOCH   = 516
BSTAR          = .33164E-2
MEAN_MOTION_DOT = .188997E-2
MEAN_MOTION_DDOT = 0

CCSDS_OMM_VERS = 2.0
CREATION_DATE  = 
ORIGINATOR     = 

OBJECT_NAME    = STARLINK-35942
OBJECT_ID      = 2025-286B
CENTER_NAME    = EARTH
REF_FRAME      = TEME
TIME_SYSTEM    = UTC
MEAN_ELEMENT_THEORY = SGP/SGP4

EPOCH          = 2026-01-02T04:00:01.998720
MEAN_MOTION    = 15.39681603
ECCENTRICITY   = .0001258
INCLINATION    = 53.1602
RA_OF_ASC_NODE = 310.1880
ARG_OF_PERICENTER = 91.0826
MEAN_ANOMALY   = 251.8429

EPHEMERIS_TYPE = 0
CLASSIFICATION_TYPE = U
NORAD_CAT_ID   = 66926
ELEMENT_SET_NO = 999
REV_AT_EPOCH   = 527
BSTAR          = -.34205E-2
MEAN_MOTION_DOT = -.135093E-2
MEAN_MOTION_DDOT = 0

CCSDS_OMM_VERS = 2.0
CREATION_DATE  = 
ORIGINATOR     = 

OBJECT_NAME    = STARLINK-35943
OBJECT_ID      = 2025-286C
CENTER_NAME    = EARTH
REF_FRAME      = TEME
TIME_SYSTEM    = UTC
MEAN_ELEMENT_THEORY = SGP/SGP4

EPOCH          = 2026-01-02T02:17:16.831680
MEAN_MOTION    = 15.49328146
ECCENTRICITY   = .0001145
INCLINATION    = 53.1600
RA_OF_ASC_NODE = 310.4180
ARG_OF_PERICENTER = 59.6427
MEAN_ANOMALY   = 300.4695

EPHEMERIS_TYPE = 0
CLASSIFICATION_TYPE = U
NORAD_CAT_ID   = 66927
ELEMENT_SET_NO = 999
REV_AT_EPOCH   = 518
BSTAR          = .16443E-2
MEAN_MOTION_DOT = .92146E-3
MEAN_MOTION_DDOT = 0

CCSDS_OMM_VERS = 2.0
CREATION_DATE  = 
ORIGINATOR     = 

OBJECT_NAME    = STARLINK-35944
OBJECT_ID      = 2025-286D
CENTER_NAME    = EARTH
REF_FRAME      = TEME
TIME_SYSTEM    = UTC
MEAN_ELEMENT_THEORY = SGP/SGP4

EPOCH          = 2026-01-01T20:06:42.088896
MEAN_MOTION    = 15.49418411
ECCENTRICITY   = .00015295
INCLINATION    = 53.1601
RA_OF_ASC_NODE = 311.6554
ARG_OF_PERICENTER = 111.9616
MEAN_ANOMALY   = 248.1556

EPHEMERIS_TYPE = 0
CLASSIFICATION_TYPE = U
NORAD_CAT_ID   = 66928
ELEMENT_SET_NO = 999
REV_AT_EPOCH   = 514
BSTAR          = .36720736E-2
MEAN_MOTION_DOT = .210173E-2
MEAN_MOTION_DDOT = 0

CCSDS_OMM_VERS = 2.0
CREATION_DATE  = 
ORIGINATOR     = 

OBJECT_NAME    = STARLINK-36169
OBJECT_ID      = 2025-286E
CENTER_NAME    = EARTH
REF_FRAME      = TEME
TIME_SYSTEM    = UTC
MEAN_ELEMENT_THEORY = SGP/SGP4

EPOCH          = 2026-01-01T07:42:11.746656
MEAN_MOTION    = 15.49184411
ECCENTRICITY   = .0001491
INCLINATION    = 53.1601
RA_OF_ASC_NODE = 314.1179
ARG_OF_PERICENTER = 236.5106
MEAN_ANOMALY   = 123.5760

EPHEMERIS_TYPE = 0
CLASSIFICATION_TYPE = U
NORAD_CAT_ID   = 66929
ELEMENT_SET_NO = 999
REV_AT_EPOCH   = 506
BSTAR          = .18658E-2
MEAN_MOTION_DOT = .104255E-2
MEAN_MOTION_DDOT = 0

CCSDS_OMM_VERS = 2.0
CREATION_DATE  = 
ORIGINATOR     = 

OBJECT_NAME    = STARLINK-36206
OBJECT_ID      = 2025-286F
CENTER_NAME    = EARTH
REF_FRAME      = TEME
TIME_SYSTEM    = UTC
MEAN_ELEMENT_THEORY = SGP/SGP4

EPOCH          = 2026-01-02T02:16:17.334912
MEAN_MOTION    = 15.49346173
ECCENTRICITY   = .0000795
INCLINATION    = 53.1603
RA_OF_ASC_NODE = 310.4126
ARG_OF_PERICENTER = 72.4816
MEAN_ANOMALY   = 287.6280

EPHEMERIS_TYPE = 0
CLASSIFICATION_TYPE = U
NORAD_CAT_ID   = 66930
ELEMENT_SET_NO = 999
REV_AT_EPOCH   = 518
BSTAR          = .22202E-2
MEAN_MOTION_DOT = .125188E-2
MEAN_MOTION_DDOT = 0

CCSDS_OMM_VERS = 2.0
CREATION_DATE  = 
ORIGINATOR     = 

OBJECT_NAME    = STARLINK-36130
OBJECT_ID      = 2025-286G
CENTER_NAME    = EARTH
REF_FRAME      = TEME
TIME_SYSTEM    = UTC
MEAN_ELEMENT_THEORY = SGP/SGP4

EPOCH          = 2026-01-02T04:00:01.998720
MEAN_MOTION    = 15.39645197
ECCENTRICITY   = .0001303
INCLINATION    = 53.1606
RA_OF_ASC_NODE = 310.2384
ARG_OF_PERICENTER = 92.6945
MEAN_ANOMALY   = 224.4665

EPHEMERIS_TYPE = 0
CLASSIFICATION_TYPE = U
NORAD_CAT_ID   = 66931
ELEMENT_SET_NO = 999
REV_AT_EPOCH   = 527
BSTAR          = -.17716E-2
MEAN_MOTION_DOT = -.70666E-3
MEAN_MOTION_DDOT = 0

CCSDS_OMM_VERS = 2.0
CREATION_DATE  = 
ORIGINATOR     = 

OBJECT_NAME    = STARLINK-36177
OBJECT_ID      = 2025-286H
CENTER_NAME    = EARTH
REF_FRAME      = TEME
TIME_SYSTEM    = UTC
MEAN_ELEMENT_THEORY = SGP/SGP4

EPOCH          = 2026-01-02T02:14:49.435008
MEAN_MOTION    = 15.49338915
ECCENTRICITY   = .0006872
INCLINATION    = 53.1599
RA_OF_ASC_NODE = 310.4053
ARG_OF_PERICENTER = 6.7356
MEAN_ANOMALY   = 353.3744

EPHEMERIS_TYPE = 0
CLASSIFICATION_TYPE = U
NORAD_CAT_ID   = 66932
ELEMENT_SET_NO = 999
REV_AT_EPOCH   = 518
BSTAR          = .17928E-2
MEAN_MOTION_DOT = .100737E-2
MEAN_MOTION_DDOT = 0

CCSDS_OMM_VERS = 2.0
CREATION_DATE  = 
ORIGINATOR     = 

OBJECT_NAME    = STARLINK-36157
OBJECT_ID      = 2025-286J
CENTER_NAME    = EARTH
REF_FRAME      = TEME
TIME_SYSTEM    = UTC
MEAN_ELEMENT_THEORY = SGP/SGP4

EPOCH          = 2026-01-01T20:03:14.391072
MEAN_MOTION    = 15.49343768
ECCENTRICITY   = .00014124
INCLINATION    = 53.1598
RA_OF_ASC_NODE = 311.6396
ARG_OF_PERICENTER = 98.6868
MEAN_ANOMALY   = 261.4302

EPHEMERIS_TYPE = 0
CLASSIFICATION_TYPE = U
NORAD_CAT_ID   = 66933
ELEMENT_SET_NO = 999
REV_AT_EPOCH   = 514
BSTAR          = .27687776E-2
MEAN_MOTION_DOT = .156862E-2
MEAN_MOTION_DDOT = 0

CCSDS_OMM_VERS = 2.0
CREATION_DATE  = 
ORIGINATOR     = 

OBJECT_NAME    = STARLINK-36153
OBJECT_ID      = 2025-286K
CENTER_NAME    = EARTH
REF_FRAME      = TEME
TIME_SYSTEM    = UTC
MEAN_ELEMENT_THEORY = SGP/SGP4

EPOCH          = 2026-01-02T04:00:01.998720
MEAN_MOTION    = 15.39526041
ECCENTRICITY   = .0001888
INCLINATION    = 53.1598
RA_OF_ASC_NODE = 310.1348
ARG_OF_PERICENTER = 116.6292
MEAN_ANOMALY   = 252.0260

EPHEMERIS_TYPE = 0
CLASSIFICATION_TYPE = U
NORAD_CAT_ID   = 66934
ELEMENT_SET_NO = 999
REV_AT_EPOCH   = 527
BSTAR          = .21487E-2
MEAN_MOTION_DOT = .86259E-3
MEAN_MOTION_DDOT = 0

CCSDS_OMM_VERS = 2.0
CREATION_DATE  = 
ORIGINATOR     = 

OBJECT_NAME    = STARLINK-36127
OBJECT_ID      = 2025-286L
CENTER_NAME    = EARTH
REF_FRAME      = TEME
TIME_SYSTEM    = UTC
MEAN_ELEMENT_THEORY = SGP/SGP4

EPOCH          = 2026-01-02T04:00:01.998720
MEAN_MOTION    = 15.39570905
ECCENTRICITY   = .0001427
INCLINATION    = 53.1607
RA_OF_ASC_NODE = 310.2882
ARG_OF_PERICENTER = 80.8334
MEAN_ANOMALY   = 210.5973

EPHEMERIS_TYPE = 0
CLASSIFICATION_TYPE = U
NORAD_CAT_ID   = 66935
ELEMENT_SET_NO = 999
REV_AT_EPOCH   = 527
BSTAR          = .14954E-2
MEAN_MOTION_DOT = .59787E-3
MEAN_MOTION_DDOT = 0

CCSDS_OMM_VERS = 2.0
CREATION_DATE  = 
ORIGINATOR     = 

OBJECT_NAME    = STARLINK-36160
OBJECT_ID      = 2025-286M
CENTER_NAME    = EARTH
REF_FRAME      = TEME
TIME_SYSTEM    = UTC
MEAN_ELEMENT_THEORY = SGP/SGP4

EPOCH          = 2026-01-02T00:39:56.991744
MEAN_MOTION    = 15.50529098
ECCENTRICITY   = .0005288
INCLINATION    = 53.1597
RA_OF_ASC_NODE = 310.7053
ARG_OF_PERICENTER = 310.5441
MEAN_ANOMALY   = 49.5107

EPHEMERIS_TYPE = 0
CLASSIFICATION_TYPE = U
NORAD_CAT_ID   = 66936
ELEMENT_SET_NO = 999
REV_AT_EPOCH   = 516
BSTAR          = .28132E-2
MEAN_MOTION_DOT = .166474E-2
MEAN_MOTION_DDOT = 0

