STARLINK-35945          
1 66925U 25286A   26001.96060227  .00188997  00000+0  33164-2 0  9992
2 66925  53.1603 310.9972 0000885  97.8828 262.2281 15.49379260  5163
STARLINK-35942          
1 66926U 25286B   26002.16668980 -.00135093  00000+0 -34205-2 0  9994
2 66926  53.1602 310.1880 0001258  91.0826 251.8429 15.39681603  5278
STARLINK-35943          
1 66927U 25286C   26002.09533370  .00092146  00000+0  16443-2 0  9994
2 66927  53.1600 310.4180 0001145  59.6427 300.4695 15.49328146  5182
STARLINK-35944          
1 66928U 25286D   26001.83798714  .00210173  00000+0  36721-2 0  9994
2 66928  53.1601 311.6554 0001529 111.9616 248.1556 15.49418411  5145
STARLINK-36169          
1 66929U 25286E   26001.32096929  .00104255  00000+0  18658-2 0  9990
2 66929  53.1601 314.1179 0001491 236.5106 123.5760 15.49184411  5067
STARLINK-36206          
1 66930U 25286F   26002.09464508  .00125188  00000+0  22202-2 0  9997
2 66930  53.1603 310.4126 0000795  72.4816 287.6280 15.49346173  5180
STARLINK-36130          
1 66931U 25286G   26002.16668980 -.00070666  00000+0 -17716-2 0  9992
2 66931  53.1606 310.2384 0001303  92.6945 224.4665 15.39645197  5274
STARLINK-36177          
1 66932U 25286H   26002.09362772  .00100737  00000+0  17928-2 0  9991
2 66932  53.1599 310.4053 0006872   6.7356 353.3744 15.49338915  5187
STARLINK-36157          
1 66933U 25286J   26001.83558323  .00156862  00000+0  27688-2 0  9996
2 66933  53.1598 311.6396 0001412  98.6868 261.4302 15.49343768  5140
STARLINK-36153          
1 66934U 25286K   26002.16668980  .00086259  00000+0  21487-2 0  9998
2 66934  53.1598 310.1348 0001888 116.6292 252.0260 15.39526041  5270
STARLINK-36127          
1 66935U 25286L   26002.16668980  .00059787  00000+0  14954-2 0  9996
2 66935  53.1607 310.2882 0001427  80.8334 210.5973 15.39570905  5272
STARLINK-36160          
1 66936U 25286M   26002.02774296  .00166474  00000+0  28132-2 0  9995
2 66936  53.1597 310.7053 0005288 310.5441  49.5107 15.50529098  5164
